ONEWEB-0020             
1 45133U 20008C   24014.59675406  .00000387  00000+0  10720-2 0  9998
2 45133  87.8899 211.9629 0001571  82.3540 277.7766 13.10376989192497
ONEWEB-0021             
1 45134U 20008D   24014.91683158  .00000613  00000+0  17203-2 0  9993
2 45134  87.8901 211.9079 0001502  90.9769 269.1530 13.10373864192845
ONEWEB-0022             
1 45135U 20008E   24014.94057621 -.00000280  00000+0 -83942-3 0  9993
2 45135  87.8896 211.9211 0001733  78.7315 281.4007 13.10390147192540
ONEWEB-0023             
1 45136U 20008F   24014.92981085  .00000256  00000+0  69701-3 0  9990
2 45136  87.8897 211.8970 0001003  81.3750 278.7491 13.10364442192271
ONEWEB-0024             
1 45137U 20008G   24014.90057536  .00000226  00000+0  61066-3 0  9997
2 45137  87.8892 211.9064 0001587  92.5509 267.5800 13.10375596192435
ONEWEB-0025             
1 45138U 20008H   24014.91845825  .00000549  00000+0  15378-2 0  9997
2 45138  87.8887 211.9023 0001366  97.3918 262.7365 13.10372716192767
ONEWEB-0026             
1 45139U 20008J   24014.87804813 -.00111758  00000+0 -32069+0 0  9995
2 45139  87.8926 196.8088 0004334 113.5325 246.6258 13.11092394195201
ONEWEB-0028             
1 45140U 20008K   24014.90975543 -.00000579  00000+0 -16707-2 0  9992
2 45140  87.8960 196.8483 0001278 121.5069 238.6184 13.11414930192725
